[{"OBJECT_NAME":"ONEWEB-0703","OBJECT_ID":"2023-068Q","EPOCH":"2026-06-11T05:59:34.708992","MEAN_MOTION":13.15548371,"ECCENTRICITY":0.0001284,"INCLINATION":87.8998,"RA_OF_ASC_NODE":260.386,"ARG_OF_PERICENTER":80.8842,"MEAN_ANOMALY":279.2433,"EPHEMERIS_TYPE":0,"CLASSIFICATION_TYPE":"U","NORAD_CAT_ID":56724,"ELEMENT_SET_NO":999,"REV_AT_EPOCH":14847,"BSTAR":0.00028903,"MEAN_MOTION_DOT":1.22e-06,"MEAN_MOTION_DDOT":0.0},{"OBJECT_NAME":"ONEWEB-0721","OBJECT_ID":"2023-068R","EPOCH":"2026-06-11T05:43:24.389472","MEAN_MOTION":13.22469338,"ECCENTRICITY":0.0001922,"INCLINATION":86.6768,"RA_OF_ASC_NODE":87.4148,"ARG_OF_PERICENTER":78.14,"MEAN_ANOMALY":281.9949,"EPHEMERIS_TYPE":0,"CLASSIFICATION_TYPE":"U","NORAD_CAT_ID":56725,"ELEMENT_SET_NO":999,"REV_AT_EPOCH":15715,"BSTAR":2.2199e-05,"MEAN_MOTION_DOT":2.4e-07,"MEAN_MOTION_DDOT":0.0},{"OBJECT_NAME":"ONEWEB-0015","OBJECT_ID":"2024-188A","EPOCH":"2026-06-11T03:06:22.358880","MEAN_MOTION":13.11419255,"ECCENTRICITY":0.0002286,"INCLINATION":87.8891,"RA_OF_ASC_NODE":22.2992,"ARG_OF_PERICENTER":76.2141,"MEAN_ANOMALY":283.9242,"EPHEMERIS_TYPE":0,"CLASSIFICATION_TYPE":"U","NORAD_CAT_ID":61594,"ELEMENT_SET_NO":999,"REV_AT_EPOCH":8366,"BSTAR":0.0011741,"MEAN_MOTION_DOT":4.29e-06,"MEAN_MOTION_DDOT":0.0},{"OBJECT_NAME":"ONEWEB-0687","OBJECT_ID":"2024-188B","EPOCH":"2026-06-11T01:55:07.491648","MEAN_MOTION":13.17647412,"ECCENTRICITY":0.000235,"INCLINATION":87.9131,"RA_OF_ASC_NODE":7.0922,"ARG_OF_PERICENTER":89.5961,"MEAN_ANOMALY":270.544,"EPHEMERIS_TYPE":0,"CLASSIFICATION_TYPE":"U","NORAD_CAT_ID":61595,"ELEMENT_SET_NO":999,"REV_AT_EPOCH":8509,"BSTAR":2.2957e-05,"MEAN_MOTION_DOT":2.2e-07,"MEAN_MOTION_DDOT":0.0},{"OBJECT_NAME":"ONEWEB-0688","OBJECT_ID":"2024-188C","EPOCH":"2026-06-11T06:15:08.076960","MEAN_MOTION":13.17648599,"ECCENTRICITY":0.0002866,"INCLINATION":87.9131,"RA_OF_ASC_NODE":7.0557,"ARG_OF_PERICENTER":69.7741,"MEAN_ANOMALY":290.3698,"EPHEMERIS_TYPE":0,"CLASSIFICATION_TYPE":"U","NORAD_CAT_ID":61596,"ELEMENT_SET_NO":999,"REV_AT_EPOCH":8511,"BSTAR":0.00015233,"MEAN_MOTION_DOT":7.2e-07,"MEAN_MOTION_DDOT":0.0},{"OBJECT_NAME":"ONEWEB-0689","OBJECT_ID":"2024-188D","EPOCH":"2026-06-11T03:55:11.430336","MEAN_MOTION":13.1141633,"ECCENTRICITY":0.0002004,"INCLINATION":87.8904,"RA_OF_ASC_NODE":22.2494,"ARG_OF_PERICENTER":92.4892,"MEAN_ANOMALY":267.6466,"EPHEMERIS_TYPE":0,"CLASSIFICATION_TYPE":"U","NORAD_CAT_ID":61597,"ELEMENT_SET_NO":999,"REV_AT_EPOCH":8366,"BSTAR":-0.00065936,"MEAN_MOTION_DOT":-2.21e-06,"MEAN_MOTION_DDOT":0.0},{"OBJECT_NAME":"ONEWEB-0690","OBJECT_ID":"2024-188E","EPOCH":"2026-06-11T04:09:50.067360","MEAN_MOTION":13.1141627,"ECCENTRICITY":0.0001383,"INCLINATION":87.8901,"RA_OF_ASC_NODE":22.2592,"ARG_OF_PERICENTER":66.5221,"MEAN_ANOMALY":293.6052,"EPHEMERIS_TYPE":0,"CLASSIFICATION_TYPE":"U","NORAD_CAT_ID":61598,"ELEMENT_SET_NO":999,"REV_AT_EPOCH":8384,"BSTAR":-0.0017493,"MEAN_MOTION_DOT":-6.07e-06,"MEAN_MOTION_DDOT":0.0},{"OBJECT_NAME":"ONEWEB-0691","OBJECT_ID":"2024-188F","EPOCH":"2026-06-11T04:02:31.554528","MEAN_MOTION":13.1141547,"ECCENTRICITY":0.0002174,"INCLINATION":87.8909,"RA_OF_ASC_NODE":22.1685,"ARG_OF_PERICENTER":80.745,"MEAN_ANOMALY":279.3924,"EPHEMERIS_TYPE":0,"CLASSIFICATION_TYPE":"U","NORAD_CAT_ID":61599,"ELEMENT_SET_NO":999,"REV_AT_EPOCH":8369,"BSTAR":-0.0011067000000000002,"MEAN_MOTION_DOT":-3.8e-06,"MEAN_MOTION_DDOT":0.0},{"OBJECT_NAME":"ONEWEB-0692","OBJECT_ID":"2024-188G","EPOCH":"2026-06-11T02:41:56.455872","MEAN_MOTION":13.11419626,"ECCENTRICITY":0.0001654,"INCLINATION":87.8891,"RA_OF_ASC_NODE":22.2942,"ARG_OF_PERICENTER":110.8451,"MEAN_ANOMALY":249.2854,"EPHEMERIS_TYPE":0,"CLASSIFICATION_TYPE":"U","NORAD_CAT_ID":61600,"ELEMENT_SET_NO":999,"REV_AT_EPOCH":8367,"BSTAR":-0.0008295,"MEAN_MOTION_DOT":-2.81e-06,"MEAN_MOTION_DDOT":0.0},{"OBJECT_NAME":"ONEWEB-0693","OBJECT_ID":"2024-188H","EPOCH":"2026-06-11T06:32:08.209536","MEAN_MOTION":13.1764793,"ECCENTRICITY":0.000151,"INCLINATION":87.9128,"RA_OF_ASC_NODE":7.0736,"ARG_OF_PERICENTER":62.1097,"MEAN_ANOMALY":298.0187,"EPHEMERIS_TYPE":0,"CLASSIFICATION_TYPE":"U","NORAD_CAT_ID":61601,"ELEMENT_SET_NO":999,"REV_AT_EPOCH":8510,"BSTAR":5.7682999999999996e-05,"MEAN_MOTION_DOT":3.5e-07,"MEAN_MOTION_DDOT":0.0},{"OBJECT_NAME":"ONEWEB-0695","OBJECT_ID":"2024-188J","EPOCH":"2026-06-11T03:57:38.219616","MEAN_MOTION":13.11414259,"ECCENTRICITY":0.0001932,"INCLINATION":87.889,"RA_OF_ASC_NODE":22.2755,"ARG_OF_PERICENTER":100.8696,"MEAN_ANOMALY":259.2649,"EPHEMERIS_TYPE":0,"CLASSIFICATION_TYPE":"U","NORAD_CAT_ID":61602,"ELEMENT_SET_NO":999,"REV_AT_EPOCH":8367,"BSTAR":-0.0008417400000000001,"MEAN_MOTION_DOT":-2.86e-06,"MEAN_MOTION_DDOT":0.0},{"OBJECT_NAME":"ONEWEB-0697","OBJECT_ID":"2024-188K","EPOCH":"2026-06-11T02:54:09.541728","MEAN_MOTION":13.11420137,"ECCENTRICITY":0.0001538,"INCLINATION":87.8892,"RA_OF_ASC_NODE":22.2747,"ARG_OF_PERICENTER":109.5996,"MEAN_ANOMALY":250.5298,"EPHEMERIS_TYPE":0,"CLASSIFICATION_TYPE":"U","NORAD_CAT_ID":61603,"ELEMENT_SET_NO":999,"REV_AT_EPOCH":8365,"BSTAR":0.00033254,"MEAN_MOTION_DOT":1.31e-06,"MEAN_MOTION_DDOT":0.0},{"OBJECT_NAME":"ONEWEB-0698","OBJECT_ID":"2024-188L","EPOCH":"2026-06-11T02:22:24.239424","MEAN_MOTION":13.11415418,"ECCENTRICITY":6.86e-05,"INCLINATION":87.889,"RA_OF_ASC_NODE":22.2932,"ARG_OF_PERICENTER":102.4799,"MEAN_ANOMALY":257.6406,"EPHEMERIS_TYPE":0,"CLASSIFICATION_TYPE":"U","NORAD_CAT_ID":61604,"ELEMENT_SET_NO":999,"REV_AT_EPOCH":8367,"BSTAR":-0.0014147,"MEAN_MOTION_DOT":-4.89e-06,"MEAN_MOTION_DDOT":0.0},{"OBJECT_NAME":"ONEWEB-0699","OBJECT_ID":"2024-188M","EPOCH":"2026-06-11T04:23:55.506048","MEAN_MOTION":13.10372718,"ECCENTRICITY":0.0001443,"INCLINATION":87.8835,"RA_OF_ASC_NODE":37.4618,"ARG_OF_PERICENTER":101.865,"MEAN_ANOMALY":258.264,"EPHEMERIS_TYPE":0,"CLASSIFICATION_TYPE":"U","NORAD_CAT_ID":61605,"ELEMENT_SET_NO":999,"REV_AT_EPOCH":8252,"BSTAR":0.0019697,"MEAN_MOTION_DOT":7e-06,"MEAN_MOTION_DDOT":0.0},{"OBJECT_NAME":"ONEWEB-0700","OBJECT_ID":"2024-188N","EPOCH":"2026-06-11T04:26:18.803904","MEAN_MOTION":13.10372045,"ECCENTRICITY":0.0001817,"INCLINATION":87.8856,"RA_OF_ASC_NODE":37.3695,"ARG_OF_PERICENTER":104.2024,"MEAN_ANOMALY":255.9306,"EPHEMERIS_TYPE":0,"CLASSIFICATION_TYPE":"U","NORAD_CAT_ID":61606,"ELEMENT_SET_NO":999,"REV_AT_EPOCH":8251,"BSTAR":0.0018003,"MEAN_MOTION_DOT":6.41e-06,"MEAN_MOTION_DDOT":0.0},{"OBJECT_NAME":"ONEWEB-0701","OBJECT_ID":"2024-188P","EPOCH":"2026-06-11T04:50:11.841216","MEAN_MOTION":13.10369221,"ECCENTRICITY":0.0001403,"INCLINATION":87.8838,"RA_OF_ASC_NODE":37.4575,"ARG_OF_PERICENTER":109.0393,"MEAN_ANOMALY":251.0886,"EPHEMERIS_TYPE":0,"CLASSIFICATION_TYPE":"U","NORAD_CAT_ID":61607,"ELEMENT_SET_NO":999,"REV_AT_EPOCH":8252,"BSTAR":-0.00024151,"MEAN_MOTION_DOT":-7.2e-07,"MEAN_MOTION_DDOT":0.0},{"OBJECT_NAME":"ONEWEB-0702","OBJECT_ID":"2024-188Q","EPOCH":"2026-06-11T03:28:21.576288","MEAN_MOTION":13.11417083,"ECCENTRICITY":0.0001787,"INCLINATION":87.8908,"RA_OF_ASC_NODE":22.1886,"ARG_OF_PERICENTER":117.6548,"MEAN_ANOMALY":242.4762,"EPHEMERIS_TYPE":0,"CLASSIFICATION_TYPE":"U","NORAD_CAT_ID":61608,"ELEMENT_SET_NO":999,"REV_AT_EPOCH":8369,"BSTAR":0.0013625000000000002,"MEAN_MOTION_DOT":4.96e-06,"MEAN_MOTION_DDOT":0.0}]