ONEWEB-0703             
1 56724U 23068Q   26162.24970728  .00000122  00000+0  28903-3 0  9998
2 56724  87.8998 260.3860 0001284  80.8842 279.2433 13.15548371148477
ONEWEB-0721             
1 56725U 23068R   26162.23847673  .00000024  00000+0  22199-4 0  9993
2 56725  86.6768  87.4148 0001922  78.1400 281.9949 13.22469338157156
ONEWEB-0015             
1 61594U 24188A   26162.12942545  .00000429  00000+0  11741-2 0  9997
2 61594  87.8891  22.2992 0002286  76.2141 283.9242 13.11419255 83668
ONEWEB-0687             
1 61595U 24188B   26162.07994782  .00000022  00000+0  22957-4 0  9994
2 61595  87.9131   7.0922 0002350  89.5961 270.5440 13.17647412 85095
ONEWEB-0688             
1 61596U 24188C   26162.26051015  .00000072  00000+0  15233-3 0  9992
2 61596  87.9131   7.0557 0002866  69.7741 290.3698 13.17648599 85113
ONEWEB-0689             
1 61597U 24188D   26162.16332674 -.00000221  00000+0 -65936-3 0  9998
2 61597  87.8904  22.2494 0002004  92.4892 267.6466 13.11416330 83662
ONEWEB-0690             
1 61598U 24188E   26162.17349615 -.00000607  00000+0 -17493-2 0  9995
2 61598  87.8901  22.2592 0001383  66.5221 293.6052 13.11416270 83849
ONEWEB-0691             
1 61599U 24188F   26162.16842077 -.00000380  00000+0 -11067-2 0  9994
2 61599  87.8909  22.1685 0002174  80.7450 279.3924 13.11415470 83694
ONEWEB-0692             
1 61600U 24188G   26162.11245898 -.00000281  00000+0 -82950-3 0  9990
2 61600  87.8891  22.2942 0001654 110.8451 249.2854 13.11419626 83675
ONEWEB-0693             
1 61601U 24188H   26162.27231724  .00000035  00000+0  57683-4 0  9992
2 61601  87.9128   7.0736 0001510  62.1097 298.0187 13.17647930 85106
ONEWEB-0695             
1 61602U 24188J   26162.16502569 -.00000286  00000+0 -84174-3 0  9993
2 61602  87.8890  22.2755 0001932 100.8696 259.2649 13.11414259 83677
ONEWEB-0697             
1 61603U 24188K   26162.12094377  .00000131  00000+0  33254-3 0  9993
2 61603  87.8892  22.2747 0001538 109.5996 250.5298 13.11420137 83656
ONEWEB-0698             
1 61604U 24188L   26162.09889166 -.00000489  00000+0 -14147-2 0  9995
2 61604  87.8890  22.2932 0000686 102.4799 257.6406 13.11415418 83674
ONEWEB-0699             
1 61605U 24188M   26162.18328132  .00000700  00000+0  19697-2 0  9996
2 61605  87.8835  37.4618 0001443 101.8650 258.2640 13.10372718 82528
ONEWEB-0700             
1 61606U 24188N   26162.18493986  .00000641  00000+0  18003-2 0  9991
2 61606  87.8856  37.3695 0001817 104.2024 255.9306 13.10372045 82518
ONEWEB-0701             
1 61607U 24188P   26162.20152594 -.00000072  00000+0 -24151-3 0  9994
2 61607  87.8838  37.4575 0001403 109.0393 251.0886 13.10369221 82523
ONEWEB-0702             
1 61608U 24188Q   26162.14469417  .00000496  00000+0  13625-2 0  9994
2 61608  87.8908  22.1886 0001787 117.6548 242.4762 13.11417083 83697
